[{"OBJECT_NAME":"STARLINK-5911","OBJECT_ID":"2023-037AN","EPOCH":"2026-03-09T23:23:07.999296","MEAN_MOTION":14.98333079,"ECCENTRICITY":0.00027499,"INCLINATION":69.9979,"RA_OF_ASC_NODE":263.8256,"ARG_OF_PERICENTER":269.9598,"MEAN_ANOMALY":90.1246,"EPHEMERIS_TYPE":0,"CLASSIFICATION_TYPE":"U","NORAD_CAT_ID":55950,"ELEMENT_SET_NO":999,"REV_AT_EPOCH":16451,"BSTAR":4.2189496e-5,"MEAN_MOTION_DOT":4.1e-6,"MEAN_MOTION_DDOT":0},{"OBJECT_NAME":"SL-16 DEB","OBJECT_ID":"1992-093LA","EPOCH":"2026-02-20T04:21:44.148672","MEAN_MOTION":14.94798833,"ECCENTRICITY":0.00217312,"INCLINATION":71.2188,"RA_OF_ASC_NODE":0.2564,"ARG_OF_PERICENTER":24.1632,"MEAN_ANOMALY":336.0549,"EPHEMERIS_TYPE":0,"CLASSIFICATION_TYPE":"U","NORAD_CAT_ID":39848,"ELEMENT_SET_NO":999,"REV_AT_EPOCH":60757,"BSTAR":0.0046757079,"MEAN_MOTION_DOT":0.00051467,"MEAN_MOTION_DDOT":0}]
